[{"OBJECT_NAME":"THORAD AGENA D DEB","OBJECT_ID":"1970-025CJ","EPOCH":"2026-03-05T05:59:56.525856","MEAN_MOTION":16.05906055,"ECCENTRICITY":0.0011376,"INCLINATION":99.5846,"RA_OF_ASC_NODE":76.8615,"ARG_OF_PERICENTER":181.1558,"MEAN_ANOMALY":178.9691,"EPHEMERIS_TYPE":0,"CLASSIFICATION_TYPE":"U","NORAD_CAT_ID":4735,"ELEMENT_SET_NO":999,"REV_AT_EPOCH":88062,"BSTAR":0.014291,"MEAN_MOTION_DOT":0.06791631,"MEAN_MOTION_DDOT":0.13744},{"OBJECT_NAME":"COSMOS 886 DEB","OBJECT_ID":"1976-126BN","EPOCH":"2026-03-05T10:21:52.276320","MEAN_MOTION":16.19434659,"ECCENTRICITY":0.0017078,"INCLINATION":65.5928,"RA_OF_ASC_NODE":307.6976,"ARG_OF_PERICENTER":206.5599,"MEAN_ANOMALY":153.4711,"EPHEMERIS_TYPE":0,"CLASSIFICATION_TYPE":"U","NORAD_CAT_ID":14501,"ELEMENT_SET_NO":999,"REV_AT_EPOCH":14999,"BSTAR":0.0047049,"MEAN_MOTION_DOT":0.08967905,"MEAN_MOTION_DDOT":6.7923e-6},{"OBJECT_NAME":"COSMOS 1812","OBJECT_ID":"1987-003A","EPOCH":"2026-03-06T03:08:00.778848","MEAN_MOTION":16.49575463,"ECCENTRICITY":0.0011771,"INCLINATION":82.4628,"RA_OF_ASC_NODE":199.5909,"ARG_OF_PERICENTER":272.0058,"MEAN_ANOMALY":87.9898,"EPHEMERIS_TYPE":0,"CLASSIFICATION_TYPE":"U","NORAD_CAT_ID":17295,"ELEMENT_SET_NO":999,"REV_AT_EPOCH":14391,"BSTAR":0.00014058925,"MEAN_MOTION_DOT":0.12040831,"MEAN_MOTION_DDOT":-1.282894e-6},{"OBJECT_NAME":"CZ-4 DEB","OBJECT_ID":"1990-081BJ","EPOCH":"2026-03-06T05:29:49.983072","MEAN_MOTION":16.06837422,"ECCENTRICITY":0.0014195,"INCLINATION":98.0769,"RA_OF_ASC_NODE":155.011,"ARG_OF_PERICENTER":294.1129,"MEAN_ANOMALY":65.8666,"EPHEMERIS_TYPE":0,"CLASSIFICATION_TYPE":"U","NORAD_CAT_ID":20898,"ELEMENT_SET_NO":999,"REV_AT_EPOCH":86760,"BSTAR":0.0090039532,"MEAN_MOTION_DOT":0.04898925,"MEAN_MOTION_DDOT":0.058860912},{"OBJECT_NAME":"IRIDIUM 51","OBJECT_ID":"1998-018A","EPOCH":"2026-03-06T04:35:58.712064","MEAN_MOTION":16.03128413,"ECCENTRICITY":0.00167423,"INCLINATION":86.35,"RA_OF_ASC_NODE":282.4191,"ARG_OF_PERICENTER":294.9621,"MEAN_ANOMALY":64.9927,"EPHEMERIS_TYPE":0,"CLASSIFICATION_TYPE":"U","NORAD_CAT_ID":25262,"ELEMENT_SET_NO":999,"REV_AT_EPOCH":48779,"BSTAR":0.0012354538,"MEAN_MOTION_DOT":0.00758788,"MEAN_MOTION_DDOT":0.00027807216},{"OBJECT_NAME":"FENGYUN 1C DEB","OBJECT_ID":"1999-025AHC","EPOCH":"2026-03-06T01:52:18.553728","MEAN_MOTION":15.98614735,"ECCENTRICITY":0.00223201,"INCLINATION":98.326,"RA_OF_ASC_NODE":214.1666,"ARG_OF_PERICENTER":276.5224,"MEAN_ANOMALY":83.3509,"EPHEMERIS_TYPE":0,"CLASSIFICATION_TYPE":"U","NORAD_CAT_ID":30490,"ELEMENT_SET_NO":999,"REV_AT_EPOCH":775,"BSTAR":0.0071770465,"MEAN_MOTION_DOT":0.03007822,"MEAN_MOTION_DDOT":0.0099151134},{"OBJECT_NAME":"CZ-2D DEB","OBJECT_ID":"2005-024J","EPOCH":"2026-03-01T21:43:49.210752","MEAN_MOTION":15.92111318,"ECCENTRICITY":0.0004089,"INCLINATION":97.1482,"RA_OF_ASC_NODE":103.0739,"ARG_OF_PERICENTER":145.2826,"MEAN_ANOMALY":214.8716,"EPHEMERIS_TYPE":0,"CLASSIFICATION_TYPE":"U","NORAD_CAT_ID":31409,"ELEMENT_SET_NO":999,"REV_AT_EPOCH":11718,"BSTAR":0.00072484,"MEAN_MOTION_DOT":0.0023946,"MEAN_MOTION_DDOT":2.3346e-5},{"OBJECT_NAME":"ZIYUAN 3-01 (ZY 3-01)","OBJECT_ID":"2012-001A","EPOCH":"2026-03-06T15:01:30.047808","MEAN_MOTION":16.00229812,"ECCENTRICITY":0.00027912,"INCLINATION":97.1564,"RA_OF_ASC_NODE":140.3677,"ARG_OF_PERICENTER":246.8684,"MEAN_ANOMALY":113.2301,"EPHEMERIS_TYPE":0,"CLASSIFICATION_TYPE":"U","NORAD_CAT_ID":38046,"ELEMENT_SET_NO":999,"REV_AT_EPOCH":78821,"BSTAR":0.00087176856,"MEAN_MOTION_DOT":0.00446641,"MEAN_MOTION_DDOT":8.7973105e-5},{"OBJECT_NAME":"HUMSAT-D","OBJECT_ID":"2013-066T","EPOCH":"2026-03-06T11:56:34.571904","MEAN_MOTION":16.07549904,"ECCENTRICITY":0.00070223,"INCLINATION":97.4816,"RA_OF_ASC_NODE":78.4106,"ARG_OF_PERICENTER":171.4042,"MEAN_ANOMALY":188.7362,"EPHEMERIS_TYPE":0,"CLASSIFICATION_TYPE":"U","NORAD_CAT_ID":39433,"ELEMENT_SET_NO":999,"REV_AT_EPOCH":67095,"BSTAR":0.0020051067,"MEAN_MOTION_DOT":0.01554058,"MEAN_MOTION_DDOT":0.0016472257},{"OBJECT_NAME":"H-2A DEB","OBJECT_ID":"2018-084E","EPOCH":"2026-03-06T13:08:22.111296","MEAN_MOTION":16.0934745,"ECCENTRICITY":0.00037808,"INCLINATION":98,"RA_OF_ASC_NODE":281.9814,"ARG_OF_PERICENTER":291.2449,"MEAN_ANOMALY":68.8428,"EPHEMERIS_TYPE":0,"CLASSIFICATION_TYPE":"U","NORAD_CAT_ID":43675,"ELEMENT_SET_NO":999,"REV_AT_EPOCH":40262,"BSTAR":0.0026999565,"MEAN_MOTION_DOT":0.02219868,"MEAN_MOTION_DDOT":0.0048114553},{"OBJECT_NAME":"SPACEBEE-7","OBJECT_ID":"2018-099BL","EPOCH":"2026-03-06T11:41:07.476576","MEAN_MOTION":16.17327861,"ECCENTRICITY":0.00095358,"INCLINATION":97.4321,"RA_OF_ASC_NODE":152.2939,"ARG_OF_PERICENTER":276.9379,"MEAN_ANOMALY":83.0823,"EPHEMERIS_TYPE":0,"CLASSIFICATION_TYPE":"U","NORAD_CAT_ID":43816,"ELEMENT_SET_NO":999,"REV_AT_EPOCH":39870,"BSTAR":0.0017706117,"MEAN_MOTION_DOT":0.02744426,"MEAN_MOTION_DDOT":2.436642e-6},{"OBJECT_NAME":"STARLINK-1112","OBJECT_ID":"2020-001M","EPOCH":"2026-03-06T14:56:40.684704","MEAN_MOTION":16.10547058,"ECCENTRICITY":0.00060337,"INCLINATION":53.0314,"RA_OF_ASC_NODE":256.8656,"ARG_OF_PERICENTER":286.5823,"MEAN_ANOMALY":73.4547,"EPHEMERIS_TYPE":0,"CLASSIFICATION_TYPE":"U","NORAD_CAT_ID":44925,"ELEMENT_SET_NO":999,"REV_AT_EPOCH":34083,"BSTAR":0.00094399702,"MEAN_MOTION_DOT":0.0094222,"MEAN_MOTION_DDOT":0.00052662032},{"OBJECT_NAME":"STARLINK-1298","OBJECT_ID":"2020-019BF","EPOCH":"2026-03-06T16:00:01.999584","MEAN_MOTION":15.94453416,"ECCENTRICITY":0.00068749,"INCLINATION":53.0349,"RA_OF_ASC_NODE":69.3923,"ARG_OF_PERICENTER":8.5079,"MEAN_ANOMALY":342.7226,"EPHEMERIS_TYPE":0,"CLASSIFICATION_TYPE":"U","NORAD_CAT_ID":45413,"ELEMENT_SET_NO":999,"REV_AT_EPOCH":596,"BSTAR":0.00052765441,"MEAN_MOTION_DOT":0.00201226,"MEAN_MOTION_DDOT":2.6752643e-5},{"OBJECT_NAME":"STARLINK-1398","OBJECT_ID":"2020-035AU","EPOCH":"2026-03-06T16:00:01.999584","MEAN_MOTION":15.93170448,"ECCENTRICITY":0.00040039,"INCLINATION":53.0362,"RA_OF_ASC_NODE":314.6894,"ARG_OF_PERICENTER":165.0217,"MEAN_ANOMALY":28.8279,"EPHEMERIS_TYPE":0,"CLASSIFICATION_TYPE":"U","NORAD_CAT_ID":45699,"ELEMENT_SET_NO":999,"REV_AT_EPOCH":590,"BSTAR":0.00088834582,"MEAN_MOTION_DOT":0.00317872,"MEAN_MOTION_DDOT":4.9849932e-5},{"OBJECT_NAME":"STARLINK-1484","OBJECT_ID":"2020-038AC","EPOCH":"2026-03-06T16:00:01.999584","MEAN_MOTION":16.00263981,"ECCENTRICITY":0.00065139,"INCLINATION":52.9974,"RA_OF_ASC_NODE":72.2401,"ARG_OF_PERICENTER":52.9217,"MEAN_ANOMALY":41.1316,"EPHEMERIS_TYPE":0,"CLASSIFICATION_TYPE":"U","NORAD_CAT_ID":45756,"ELEMENT_SET_NO":999,"REV_AT_EPOCH":602,"BSTAR":0.00078776976,"MEAN_MOTION_DOT":0.00418027,"MEAN_MOTION_DDOT":8.6150306e-5},{"OBJECT_NAME":"STARLINK-1587","OBJECT_ID":"2020-057AS","EPOCH":"2026-03-06T16:00:01.999584","MEAN_MOTION":15.93624905,"ECCENTRICITY":0.0004077,"INCLINATION":53.0315,"RA_OF_ASC_NODE":231.8159,"ARG_OF_PERICENTER":282.0297,"MEAN_ANOMALY":22.4601,"EPHEMERIS_TYPE":0,"CLASSIFICATION_TYPE":"U","NORAD_CAT_ID":46157,"ELEMENT_SET_NO":999,"REV_AT_EPOCH":598,"BSTAR":0.0011409203,"MEAN_MOTION_DOT":0.00419114,"MEAN_MOTION_DDOT":7.9917494e-5}]
