THORAD AGENA D DEB      
1 04735U 70025CJ  26064.24995979  .06791631  13744+0  14291-1 0  9994
2 04735  99.5846  76.8615 0011376 181.1558 178.9691 16.05906055880624
COSMOS 886 DEB          
1 14501U 76126BN  26064.43185505  .08967905  67923-5  47049-2 0  9994
2 14501  65.5928 307.6976 0017078 206.5599 153.4711 16.19434659149997
COSMOS 1812             
1 17295U 87003A   26065.13056457  .12040831 -12829-5  14059-3 0  9991
2 17295  82.4628 199.5909 0011771 272.0058  87.9898 16.49575463143916
CZ-4 DEB                
1 20898U 90081BJ  26065.22905073  .04898925  58861-1  90040-2 0  9991
2 20898  98.0769 155.0110 0014195 294.1129  65.8666 16.06837422867602
IRIDIUM 51              
1 25262U 98018A   26065.19165176  .00758788  27807-3  12355-2 0  9996
2 25262  86.3500 282.4191 0016742 294.9621  64.9927 16.03128413487792
FENGYUN 1C DEB          
1 30490U 99025AHC 26065.07799252  .03007822  99151-2  71770-2 0  9994
2 30490  98.3260 214.1666 0022320 276.5224  83.3509 15.98614735  7755
CZ-2D DEB               
1 31409U 05024J   26060.90543068  .00239460  23346-4  72484-3 0  9991
2 31409  97.1482 103.0739 0004089 145.2826 214.8716 15.92111318117181
ZIYUAN 3-01 (ZY 3-01)   
1 38046U 12001A   26065.62604222  .00446641  87973-4  87177-3 0  9994
2 38046  97.1564 140.3677 0002791 246.8684 113.2301 16.00229812788218
HUMSAT-D                
1 39433U 13066T   26065.49762236  .01554058  16472-2  20051-2 0  9996
2 39433  97.4816  78.4106 0007022 171.4042 188.7362 16.07549904670952
H-2A DEB                
1 43675U 18084E   26065.54747814  .02219868  48115-2  27000-2 0  9993
2 43675  98.0000 281.9814 0003780 291.2449  68.8428 16.09347450402625
SPACEBEE-7              
1 43816U 18099BL  26065.48689209  .02744426  24366-5  17706-2 0  9992
2 43816  97.4321 152.2939 0009535 276.9379  83.0823 16.17327861398709
STARLINK-1112           
1 44925U 20001M   26065.62269311  .00942220  52662-3  94400-3 0  9999
2 44925  53.0314 256.8656 0006033 286.5823  73.4547 16.10547058340831
STARLINK-1298           
1 45413U 20019BF  26065.66668981  .00201226  26753-4  52765-3 0  9996
2 45413  53.0349  69.3923 0006874   8.5079 342.7226 15.94453416  5967
STARLINK-1398           
1 45699U 20035AU  26065.66668981  .00317872  49850-4  88835-3 0  9995
2 45699  53.0362 314.6894 0004003 165.0217  28.8279 15.93170448  5900
STARLINK-1484           
1 45756U 20038AC  26065.66668981  .00418027  86150-4  78777-3 0  9994
2 45756  52.9974  72.2401 0006513  52.9217  41.1316 16.00263981  6022
STARLINK-1587           
1 46157U 20057AS  26065.66668981  .00419114  79917-4  11409-2 0  9990
2 46157  53.0315 231.8159 0004077 282.0297  22.4601 15.93624905  5980
